[{"OBJECT_NAME":"COSMOS 2251 DEB","OBJECT_ID":"1993-036ATB","EPOCH":"2026-03-02T15:27:19.963584","MEAN_MOTION":14.7873578,"ECCENTRICITY":0.0005976,"INCLINATION":74.0247,"RA_OF_ASC_NODE":301.9249,"ARG_OF_PERICENTER":329.6111,"MEAN_ANOMALY":30.4717,"EPHEMERIS_TYPE":0,"CLASSIFICATION_TYPE":"U","NORAD_CAT_ID":35829,"ELEMENT_SET_NO":999,"REV_AT_EPOCH":88955,"BSTAR":0.0016177,"MEAN_MOTION_DOT":0.00011869,"MEAN_MOTION_DDOT":0},{"OBJECT_NAME":"COSMOS 2251 DEB","OBJECT_ID":"1993-036ATC","EPOCH":"2026-02-22T21:20:34.692288","MEAN_MOTION":14.24746336,"ECCENTRICITY":0.0117107,"INCLINATION":73.8599,"RA_OF_ASC_NODE":135.0607,"ARG_OF_PERICENTER":88.6134,"MEAN_ANOMALY":272.8423,"EPHEMERIS_TYPE":0,"CLASSIFICATION_TYPE":"U","NORAD_CAT_ID":35830,"ELEMENT_SET_NO":999,"REV_AT_EPOCH":62291,"BSTAR":0.0014852,"MEAN_MOTION_DOT":3.691e-5,"MEAN_MOTION_DDOT":0},{"OBJECT_NAME":"COSMOS 2251 DEB","OBJECT_ID":"1993-036ATG","EPOCH":"2026-02-14T10:46:18.567264","MEAN_MOTION":14.13041554,"ECCENTRICITY":0.0110391,"INCLINATION":73.9321,"RA_OF_ASC_NODE":191.1646,"ARG_OF_PERICENTER":337.4851,"MEAN_ANOMALY":82.1902,"EPHEMERIS_TYPE":0,"CLASSIFICATION_TYPE":"U","NORAD_CAT_ID":35834,"ELEMENT_SET_NO":999,"REV_AT_EPOCH":67163,"BSTAR":0.00039578694,"MEAN_MOTION_DOT":7.57e-6,"MEAN_MOTION_DDOT":0},{"OBJECT_NAME":"COSMOS 2251 DEB","OBJECT_ID":"1993-036ATH","EPOCH":"2026-03-01T20:41:06.797472","MEAN_MOTION":13.83193433,"ECCENTRICITY":0.0295683,"INCLINATION":74.0635,"RA_OF_ASC_NODE":135.3723,"ARG_OF_PERICENTER":259.1296,"MEAN_ANOMALY":97.643,"EPHEMERIS_TYPE":0,"CLASSIFICATION_TYPE":"U","NORAD_CAT_ID":35835,"ELEMENT_SET_NO":999,"REV_AT_EPOCH":62793,"BSTAR":0.0013823,"MEAN_MOTION_DOT":2.096e-5,"MEAN_MOTION_DDOT":0},{"OBJECT_NAME":"COSMOS 2251 DEB","OBJECT_ID":"1993-036ATJ","EPOCH":"2026-03-03T06:51:41.994144","MEAN_MOTION":14.73266199,"ECCENTRICITY":0.00191734,"INCLINATION":74.0344,"RA_OF_ASC_NODE":16.1931,"ARG_OF_PERICENTER":52.9682,"MEAN_ANOMALY":307.3241,"EPHEMERIS_TYPE":0,"CLASSIFICATION_TYPE":"U","NORAD_CAT_ID":35836,"ELEMENT_SET_NO":999,"REV_AT_EPOCH":64705,"BSTAR":0.0025518444,"MEAN_MOTION_DOT":0.0001655,"MEAN_MOTION_DDOT":0},{"OBJECT_NAME":"COSMOS 2251 DEB","OBJECT_ID":"1993-036ATK","EPOCH":"2026-03-05T00:01:03.785664","MEAN_MOTION":13.64353509,"ECCENTRICITY":0.0416583,"INCLINATION":73.7083,"RA_OF_ASC_NODE":70.6698,"ARG_OF_PERICENTER":337.7491,"MEAN_ANOMALY":48.4119,"EPHEMERIS_TYPE":0,"CLASSIFICATION_TYPE":"U","NORAD_CAT_ID":35837,"ELEMENT_SET_NO":999,"REV_AT_EPOCH":59098,"BSTAR":0.0067522887,"MEAN_MOTION_DOT":9.75e-5,"MEAN_MOTION_DDOT":0},{"OBJECT_NAME":"COSMOS 2251 DEB","OBJECT_ID":"1993-036ATN","EPOCH":"2026-03-05T02:13:23.073024","MEAN_MOTION":14.38881966,"ECCENTRICITY":0.01173261,"INCLINATION":73.9344,"RA_OF_ASC_NODE":5.408,"ARG_OF_PERICENTER":249.7424,"MEAN_ANOMALY":109.1086,"EPHEMERIS_TYPE":0,"CLASSIFICATION_TYPE":"U","NORAD_CAT_ID":35840,"ELEMENT_SET_NO":999,"REV_AT_EPOCH":86475,"BSTAR":0.0020532403,"MEAN_MOTION_DOT":6.828e-5,"MEAN_MOTION_DDOT":0},{"OBJECT_NAME":"COSMOS 2251 DEB","OBJECT_ID":"1993-036ATW","EPOCH":"2026-02-14T01:25:55.152768","MEAN_MOTION":14.50773681,"ECCENTRICITY":0.00819848,"INCLINATION":74.0248,"RA_OF_ASC_NODE":310.8888,"ARG_OF_PERICENTER":63.4989,"MEAN_ANOMALY":357.8793,"EPHEMERIS_TYPE":0,"CLASSIFICATION_TYPE":"U","NORAD_CAT_ID":35883,"ELEMENT_SET_NO":999,"REV_AT_EPOCH":63304,"BSTAR":0.00028013865,"MEAN_MOTION_DOT":1.122e-5,"MEAN_MOTION_DDOT":0},{"OBJECT_NAME":"COSMOS 2251 DEB","OBJECT_ID":"1993-036ATX","EPOCH":"2026-02-14T20:23:06.722304","MEAN_MOTION":14.26226388,"ECCENTRICITY":0.01118844,"INCLINATION":73.9877,"RA_OF_ASC_NODE":219.8695,"ARG_OF_PERICENTER":351.2575,"MEAN_ANOMALY":8.6619,"EPHEMERIS_TYPE":0,"CLASSIFICATION_TYPE":"U","NORAD_CAT_ID":35884,"ELEMENT_SET_NO":999,"REV_AT_EPOCH":23271,"BSTAR":0.00091069659,"MEAN_MOTION_DOT":2.306e-5,"MEAN_MOTION_DDOT":0},{"OBJECT_NAME":"COSMOS 2251 DEB","OBJECT_ID":"1993-036ATY","EPOCH":"2026-03-03T13:24:10.968192","MEAN_MOTION":14.37689676,"ECCENTRICITY":0.0024458,"INCLINATION":74.0285,"RA_OF_ASC_NODE":145.9747,"ARG_OF_PERICENTER":214.0131,"MEAN_ANOMALY":145.9456,"EPHEMERIS_TYPE":0,"CLASSIFICATION_TYPE":"U","NORAD_CAT_ID":35885,"ELEMENT_SET_NO":999,"REV_AT_EPOCH":66177,"BSTAR":0.00032966,"MEAN_MOTION_DOT":9.68e-6,"MEAN_MOTION_DDOT":0},{"OBJECT_NAME":"COSMOS 2251 DEB","OBJECT_ID":"1993-036AUB","EPOCH":"2026-02-27T02:49:37.414560","MEAN_MOTION":14.58661715,"ECCENTRICITY":0.00503613,"INCLINATION":74.0315,"RA_OF_ASC_NODE":211.2374,"ARG_OF_PERICENTER":322.2784,"MEAN_ANOMALY":37.4853,"EPHEMERIS_TYPE":0,"CLASSIFICATION_TYPE":"U","NORAD_CAT_ID":35888,"ELEMENT_SET_NO":999,"REV_AT_EPOCH":87387,"BSTAR":0.00038081528,"MEAN_MOTION_DOT":1.776e-5,"MEAN_MOTION_DDOT":0},{"OBJECT_NAME":"COSMOS 2251 DEB","OBJECT_ID":"1993-036AUD","EPOCH":"2026-02-24T19:06:08.167104","MEAN_MOTION":14.58817255,"ECCENTRICITY":0.00556948,"INCLINATION":73.9365,"RA_OF_ASC_NODE":100.9469,"ARG_OF_PERICENTER":215.1733,"MEAN_ANOMALY":144.5751,"EPHEMERIS_TYPE":0,"CLASSIFICATION_TYPE":"U","NORAD_CAT_ID":35890,"ELEMENT_SET_NO":999,"REV_AT_EPOCH":66230,"BSTAR":0.0011440179,"MEAN_MOTION_DOT":5.439e-5,"MEAN_MOTION_DDOT":0},{"OBJECT_NAME":"COSMOS 2251 DEB","OBJECT_ID":"1993-036AUE","EPOCH":"2026-03-05T06:56:55.831776","MEAN_MOTION":15.42429662,"ECCENTRICITY":0.00345297,"INCLINATION":73.983,"RA_OF_ASC_NODE":275.6051,"ARG_OF_PERICENTER":23.7803,"MEAN_ANOMALY":336.4991,"EPHEMERIS_TYPE":0,"CLASSIFICATION_TYPE":"U","NORAD_CAT_ID":35891,"ELEMENT_SET_NO":999,"REV_AT_EPOCH":68489,"BSTAR":0.0014312787,"MEAN_MOTION_DOT":0.00063739,"MEAN_MOTION_DDOT":0},{"OBJECT_NAME":"COSMOS 2251 DEB","OBJECT_ID":"1993-036AUM","EPOCH":"2026-03-02T22:02:00.353760","MEAN_MOTION":14.9620314,"ECCENTRICITY":0.008118,"INCLINATION":73.9913,"RA_OF_ASC_NODE":135.1875,"ARG_OF_PERICENTER":259.5786,"MEAN_ANOMALY":224.0905,"EPHEMERIS_TYPE":0,"CLASSIFICATION_TYPE":"U","NORAD_CAT_ID":35898,"ELEMENT_SET_NO":999,"REV_AT_EPOCH":68008,"BSTAR":0.00076926,"MEAN_MOTION_DOT":9.242e-5,"MEAN_MOTION_DDOT":0},{"OBJECT_NAME":"COSMOS 2251 DEB","OBJECT_ID":"1993-036AUQ","EPOCH":"2026-03-03T09:54:29.808000","MEAN_MOTION":15.20399634,"ECCENTRICITY":0.00017924,"INCLINATION":74.0063,"RA_OF_ASC_NODE":215.2278,"ARG_OF_PERICENTER":345.5252,"MEAN_ANOMALY":40.7842,"EPHEMERIS_TYPE":0,"CLASSIFICATION_TYPE":"U","NORAD_CAT_ID":35901,"ELEMENT_SET_NO":999,"REV_AT_EPOCH":87347,"BSTAR":0.0053747812,"MEAN_MOTION_DOT":0.00119078,"MEAN_MOTION_DDOT":0},{"OBJECT_NAME":"COSMOS 2251 DEB","OBJECT_ID":"1993-036AUR","EPOCH":"2026-03-01T11:39:17.156736","MEAN_MOTION":14.27401531,"ECCENTRICITY":0.01027835,"INCLINATION":73.9812,"RA_OF_ASC_NODE":91.5985,"ARG_OF_PERICENTER":191.4251,"MEAN_ANOMALY":168.4565,"EPHEMERIS_TYPE":0,"CLASSIFICATION_TYPE":"U","NORAD_CAT_ID":35902,"ELEMENT_SET_NO":999,"REV_AT_EPOCH":62253,"BSTAR":0.00087332247,"MEAN_MOTION_DOT":2.24e-5,"MEAN_MOTION_DDOT":0}]
